[{"OBJECT_NAME":"NOAA 17","OBJECT_ID":"2002-032A","EPOCH":"2026-03-04T14:59:18.097728","MEAN_MOTION":14.26185777,"ECCENTRICITY":0.00106911,"INCLINATION":98.8533,"RA_OF_ASC_NODE":28.2008,"ARG_OF_PERICENTER":297.8879,"MEAN_ANOMALY":62.1217,"EPHEMERIS_TYPE":0,"CLASSIFICATION_TYPE":"U","NORAD_CAT_ID":27453,"ELEMENT_SET_NO":999,"REV_AT_EPOCH":23208,"BSTAR":0.00015645924,"MEAN_MOTION_DOT":3.29e-6,"MEAN_MOTION_DDOT":0},{"OBJECT_NAME":"NOAA 18","OBJECT_ID":"2005-018A","EPOCH":"2026-03-04T14:06:02.877120","MEAN_MOTION":14.13709689,"ECCENTRICITY":0.00153507,"INCLINATION":98.8165,"RA_OF_ASC_NODE":144.7662,"ARG_OF_PERICENTER":88.9827,"MEAN_ANOMALY":271.3104,"EPHEMERIS_TYPE":0,"CLASSIFICATION_TYPE":"U","NORAD_CAT_ID":28654,"ELEMENT_SET_NO":999,"REV_AT_EPOCH":7153,"BSTAR":6.9331253e-5,"MEAN_MOTION_DOT":8.7e-7,"MEAN_MOTION_DDOT":0},{"OBJECT_NAME":"NOAA 19","OBJECT_ID":"2009-005A","EPOCH":"2026-03-04T13:37:39.709344","MEAN_MOTION":14.13455677,"ECCENTRICITY":0.0013086,"INCLINATION":98.9617,"RA_OF_ASC_NODE":134.3301,"ARG_OF_PERICENTER":330.0012,"MEAN_ANOMALY":30.0409,"EPHEMERIS_TYPE":0,"CLASSIFICATION_TYPE":"U","NORAD_CAT_ID":33591,"ELEMENT_SET_NO":999,"REV_AT_EPOCH":87970,"BSTAR":5.9851087e-5,"MEAN_MOTION_DOT":6.8e-7,"MEAN_MOTION_DDOT":0},{"OBJECT_NAME":"SUOMI NPP","OBJECT_ID":"2011-061A","EPOCH":"2026-03-04T14:20:53.687040","MEAN_MOTION":14.19541848,"ECCENTRICITY":4.099e-5,"INCLINATION":98.7865,"RA_OF_ASC_NODE":5.2411,"ARG_OF_PERICENTER":280.5386,"MEAN_ANOMALY":79.5744,"EPHEMERIS_TYPE":0,"CLASSIFICATION_TYPE":"U","NORAD_CAT_ID":37849,"ELEMENT_SET_NO":999,"REV_AT_EPOCH":74360,"BSTAR":8.185771e-5,"MEAN_MOTION_DOT":1.28e-6,"MEAN_MOTION_DDOT":0},{"OBJECT_NAME":"NOAA 20 (JPSS-1)","OBJECT_ID":"2017-073A","EPOCH":"2026-03-04T13:00:29.085984","MEAN_MOTION":14.19534477,"ECCENTRICITY":9.765e-5,"INCLINATION":98.7687,"RA_OF_ASC_NODE":3.9805,"ARG_OF_PERICENTER":144.4813,"MEAN_ANOMALY":215.6429,"EPHEMERIS_TYPE":0,"CLASSIFICATION_TYPE":"U","NORAD_CAT_ID":43013,"ELEMENT_SET_NO":999,"REV_AT_EPOCH":42962,"BSTAR":6.8982036e-5,"MEAN_MOTION_DOT":1.01e-6,"MEAN_MOTION_DDOT":0},{"OBJECT_NAME":"NOAA 21 (JPSS-2)","OBJECT_ID":"2022-150A","EPOCH":"2026-03-04T13:50:32.755200","MEAN_MOTION":14.19550502,"ECCENTRICITY":0.00025441,"INCLINATION":98.755,"RA_OF_ASC_NODE":3.9014,"ARG_OF_PERICENTER":115.625,"MEAN_ANOMALY":244.5189,"EPHEMERIS_TYPE":0,"CLASSIFICATION_TYPE":"U","NORAD_CAT_ID":54234,"ELEMENT_SET_NO":999,"REV_AT_EPOCH":17170,"BSTAR":7.5549642e-5,"MEAN_MOTION_DOT":1.15e-6,"MEAN_MOTION_DDOT":0}]
