NOAA 17                 
1 27453U 02032A   26063.62451502  .00000329  00000+0  15646-3 0  9998
2 27453  98.8533  28.2008 0010691 297.8879  62.1217 14.26185777232088
NOAA 18                 
1 28654U 05018A   26063.58753330  .00000087  00000+0  69331-4 0  9990
2 28654  98.8165 144.7662 0015350  88.9827 271.3104 14.13709689 71532
NOAA 19                 
1 33591U 09005A   26063.56782071  .00000068  00000+0  59851-4 0  9993
2 33591  98.9617 134.3301 0013086 330.0012  30.0409 14.13455677879705
SUOMI NPP               
1 37849U 11061A   26063.59784360  .00000128  00000+0  81858-4 0  9993
2 37849  98.7865   5.2411 0000409 280.5386  79.5744 14.19541848743605
NOAA 20 (JPSS-1)        
1 43013U 17073A   26063.54200331  .00000101  00000+0  68982-4 0  9992
2 43013  98.7687   3.9805 0000976 144.4813 215.6429 14.19534477429627
NOAA 21 (JPSS-2)        
1 54234U 22150A   26063.57676800  .00000115  00000+0  75550-4 0  9996
2 54234  98.7550   3.9014 0002544 115.6250 244.5189 14.19550502171707
